start=new Date('2022-08-09T00:00:00.000Z').valueOf();
sats=[{"TLE_LINE1":"1 47163U 20088AT  22220.84401450  .00001154  00000-0  96339-4 0  9998","ELEMENT_SET_NO":"999","BSTAR":"0.00009633900000","FILE":"3532305","REF_FRAME":"TEME","TLE_LINE2":"2 47163  53.0556  67.2504 0001375 103.6315 256.4827 15.06403507 94420","TIME_SYSTEM":"UTC","REV_AT_EPOCH":"9442","COUNTRY_CODE":"US","PERIAPSIS":"546.251","RCS_SIZE":"LARGE","SITE":"AFETR","MEAN_MOTION":"15.06403507","MEAN_ELEMENT_THEORY":"SGP4","CENTER_NAME":"EARTH","MEAN_MOTION_DDOT":"0.0000000000000","APOAPSIS":"548.155","EPOCH":"2022-08-08T20:15:22.852800","GP_ID":"209860353","OBJECT_NAME":"STARLINK-1878","LAUNCH_DATE":"2020-11-25","EPHEMERIS_TYPE":"0","RA_OF_ASC_NODE":"67.2504","OBJECT_TYPE":"PAYLOAD","MEAN_ANOMALY":"256.4827","CLASSIFICATION_TYPE":"U","SEMIMAJOR_AXIS":"6925.338","INCLINATION":"53.0556","OBJECT_ID":"2020-088AT","PERIOD":"95.592","DECAY_DATE":null,"ECCENTRICITY":"0.00013750","MEAN_MOTION_DOT":"0.00001154","ARG_OF_PERICENTER":"103.6315","NORAD_CAT_ID":"47163"},{"INCLINATION":"53.0546","OBJECT_ID":"2020-088AU","PERIOD":"95.592","DECAY_DATE":null,"MEAN_ANOMALY":"281.5997","OBJECT_TYPE":"PAYLOAD","CLASSIFICATION_TYPE":"U","SEMIMAJOR_AXIS":"6925.332","MEAN_MOTION_DOT":"0.00001839","ARG_OF_PERICENTER":"78.5176","NORAD_CAT_ID":"47164","ECCENTRICITY":"0.00016400","EPOCH":"2022-08-08T15:11:30.974496","GP_ID":"209861604","OBJECT_NAME":"STARLINK-1879","MEAN_MOTION_DDOT":"0.0000000000000","APOAPSIS":"548.333","RA_OF_ASC_NODE":"38.2067","LAUNCH_DATE":"2020-11-25","EPHEMERIS_TYPE":"0","PERIAPSIS":"546.061","COUNTRY_CODE":"US","MEAN_MOTION":"15.06405469","SITE":"AFETR","CENTER_NAME":"EARTH","MEAN_ELEMENT_THEORY":"SGP4","RCS_SIZE":"LARGE","TLE_LINE2":"2 47164  53.0546  38.2067 0001640  78.5176 281.5997 15.06405469 94811","ELEMENT_SET_NO":"999","TLE_LINE1":"1 47164U 20088AU  22220.63299739  .00001839  00000-0  14229-3 0  9998","BSTAR":"0.00014229000000","FILE":"3532305","REF_FRAME":"TEME","TIME_SYSTEM":"UTC","REV_AT_EPOCH":"9481"},{"COUNTRY_CODE":"US","PERIAPSIS":"546.210","RCS_SIZE":"LARGE","MEAN_ELEMENT_THEORY":"SGP4","CENTER_NAME":"EARTH","SITE":"AFETR","MEAN_MOTION":"15.06423639","BSTAR":"0.00041017000000","FILE":"3532305","REF_FRAME":"TEME","ELEMENT_SET_NO":"999","TLE_LINE1":"1 47165U 20088AV  22220.83756391  .00005837  00000-0  41017-3 0  9990","TLE_LINE2":"2 47165  53.0553  57.2752 0001344  86.7504 273.3639 15.06423639 94562","REV_AT_EPOCH":"9456","TIME_SYSTEM":"UTC","SEMIMAJOR_AXIS":"6925.276","CLASSIFICATION_TYPE":"U","MEAN_ANOMALY":"273.3639","OBJECT_TYPE":"PAYLOAD","DECAY_DATE":null,"PERIOD":"95.591","OBJECT_ID":"2020-088AV","INCLINATION":"53.0553","ECCENTRICITY":"0.00013440","NORAD_CAT_ID":"47165","ARG_OF_PERICENTER":"86.7504","MEAN_MOTION_DOT":"0.00005837","APOAPSIS":"548.072","MEAN_MOTION_DDOT":"0.0000000000000","OBJECT_NAME":"STARLINK-1880","GP_ID":"209861855","EPOCH":"2022-08-08T20:06:05.521824","LAUNCH_DATE":"2020-11-25","EPHEMERIS_TYPE":"0","RA_OF_ASC_NODE":"57.2752"},{"OBJECT_ID":"2020-088AW","DECAY_DATE":null,"PERIOD":"92.909","INCLINATION":"53.0493","SEMIMAJOR_AXIS":"6795.168","MEAN_ANOMALY":"291.9079","OBJECT_TYPE":"PAYLOAD","CLASSIFICATION_TYPE":"U","ARG_OF_PERICENTER":"68.2286","NORAD_CAT_ID":"47166","MEAN_MOTION_DOT":"0.00029907","ECCENTRICITY":"0.00033640","GP_ID":"209831411","OBJECT_NAME":"STARLINK-1881","EPOCH":"2022-08-08T11:36:10.983744","APOAPSIS":"419.319","MEAN_MOTION_DDOT":"0.0000000000000","RA_OF_ASC_NODE":"314.2261","EPHEMERIS_TYPE":"0","LAUNCH_DATE":"2020-11-25","PERIAPSIS":"414.747","COUNTRY_CODE":"US","CENTER_NAME":"EARTH","MEAN_ELEMENT_THEORY":"SGP4","MEAN_MOTION":"15.49895616","SITE":"AFETR","RCS_SIZE":"LARGE","TLE_LINE2":"2 47166  53.0493 314.2261 0003364  68.2286 291.9079 15.49895616 95990","ELEMENT_SET_NO":"999","TLE_LINE1":"1 47166U 20088AW  22220.48346046  .00029907  00000-0  53254-3 0  9994","FILE":"3532128","REF_FRAME":"TEME","BSTAR":"0.00053254000000","REV_AT_EPOCH":"9599","TIME_SYSTEM":"UTC"},{"INCLINATION":"53.0551","PERIOD":"95.592","DECAY_DATE":null,"OBJECT_ID":"2020-088AX","CLASSIFICATION_TYPE":"U","OBJECT_TYPE":"PAYLOAD","MEAN_ANOMALY":"278.4791","SEMIMAJOR_AXIS":"6925.333","MEAN_MOTION_DOT":"0.00001351","NORAD_CAT_ID":"47167","ARG_OF_PERICENTER":"81.6396","ECCENTRICITY":"0.00017480","EPOCH":"2022-08-08T19:44:51.705888","OBJECT_NAME":"STARLINK-1884","GP_ID":"209860853","MEAN_MOTION_DDOT":"0.0000000000000","APOAPSIS":"548.409","RA_OF_ASC_NODE":"57.3379","EPHEMERIS_TYPE":"0","LAUNCH_DATE":"2020-11-25","PERIAPSIS":"545.987","COUNTRY_CODE":"US","MEAN_MOTION":"15.06405066","SITE":"AFETR","MEAN_ELEMENT_THEORY":"SGP4","CENTER_NAME":"EARTH","RCS_SIZE":"LARGE","TLE_LINE2":"2 47167  53.0551  57.3379 0001748  81.6396 278.4791 15.06405066 94568","REF_FRAME":"TEME","FILE":"3532305","BSTAR":"0.00010960000000","TLE_LINE1":"1 47167U 20088AX  22220.82282067  .00001351  00000-0  10960-3 0  9995","ELEMENT_SET_NO":"999","TIME_SYSTEM":"UTC","REV_AT_EPOCH":"9456"},{"MEAN_MOTION":"15.93317085","SITE":"AFETR","MEAN_ELEMENT_THEORY":"SGP4","CENTER_NAME":"EARTH","RCS_SIZE":"LARGE","PERIAPSIS":"290.032","COUNTRY_CODE":"US","TIME_SYSTEM":"UTC","REV_AT_EPOCH":"9633","TLE_LINE2":"2 47168  53.0314 311.5912 0004464  14.0899 345.6909 15.93317085 96334","ELEMENT_SET_NO":"999","TLE_LINE1":"1 47168U 20088AY  22220.73777396  .00330317  53096-4  91550-3 0  9998","BSTAR":"0.00091550000000","FILE":"3532312","REF_FRAME":"TEME","MEAN_MOTION_DOT":"0.00330317","ARG_OF_PERICENTER":"14.0899","NORAD_CAT_ID":"47168","ECCENTRICITY":"0.00044640","INCLINATION":"53.0314","OBJECT_ID":"2020-088AY","DECAY_DATE":null,"PERIOD":"90.377","OBJECT_TYPE":"PAYLOAD","MEAN_ANOMALY":"345.6909","CLASSIFICATION_TYPE":"U","SEMIMAJOR_AXIS":"6671.145","RA_OF_ASC_NODE":"311.5912","EPHEMERIS_TYPE":"0","LAUNCH_DATE":"2020-11-25","EPOCH":"2022-08-08T17:42:23.670144","GP_ID":"209865091","OBJECT_NAME":"STARLINK-1885","MEAN_MOTION_DDOT":"0.0000530960000","APOAPSIS":"295.988"},{"PERIAPSIS":"546.237","COUNTRY_CODE":"US","MEAN_ELEMENT_THEORY":"SGP4","CENTER_NAME":"EARTH","SITE":"AFETR","MEAN_MOTION":"15.06413265","RCS_SIZE":"LARGE","TLE_LINE2":"2 47170  53.0542  58.6058 0001352  85.4148 274.6995 15.06413265 94528","ELEMENT_SET_NO":"999","TLE_LINE1":"1 47170U 20088BA  22220.54269644  .00009084  00000-0  62775-3 0  9996","REF_FRAME":"TEME","FILE":"3532128","BSTAR":"0.00062775000000","REV_AT_EPOCH":"9452","TIME_SYSTEM":"UTC","OBJECT_ID":"2020-088BA","DECAY_DATE":null,"PERIOD":"95.591","INCLINATION":"53.0542","SEMIMAJOR_AXIS":"6925.308","MEAN_ANOMALY":"274.6995","OBJECT_TYPE":"PAYLOAD","CLASSIFICATION_TYPE":"U","ARG_OF_PERICENTER":"85.4148","NORAD_CAT_ID":"47170","MEAN_MOTION_DOT":"0.00009084","ECCENTRICITY":"0.00013520","GP_ID":"209832164","OBJECT_NAME":"STARLINK-1887","EPOCH":"2022-08-08T13:01:28.972416","APOAPSIS":"548.109","MEAN_MOTION_DDOT":"0.0000000000000","RA_OF_ASC_NODE":"58.6058","EPHEMERIS_TYPE":"0","LAUNCH_DATE":"2020-11-25"},{"ELEMENT_SET_NO":"999","TLE_LINE1":"1 47171U 20088BB  22220.82743198  .00007120  00000-0  49619-3 0  9990","BSTAR":"0.00049619000000","FILE":"3532305","REF_FRAME":"TEME","TLE_LINE2":"2 47171  53.0541  47.3250 0001538  87.2285 272.8880 15.06413695 94705","REV_AT_EPOCH":"9470","TIME_SYSTEM":"UTC","COUNTRY_CODE":"US","PERIAPSIS":"546.106","RCS_SIZE":"LARGE","CENTER_NAME":"EARTH","MEAN_ELEMENT_THEORY":"SGP4","MEAN_MOTION":"15.06413695","SITE":"AFETR","APOAPSIS":"548.237","MEAN_MOTION_DDOT":"0.0000000000000","GP_ID":"209860104","OBJECT_NAME":"STARLINK-1888","EPOCH":"2022-08-08T19:51:30.123072","EPHEMERIS_TYPE":"0","LAUNCH_DATE":"2020-11-25","RA_OF_ASC_NODE":"47.3250","SEMIMAJOR_AXIS":"6925.307","OBJECT_TYPE":"PAYLOAD","MEAN_ANOMALY":"272.8880","CLASSIFICATION_TYPE":"U","OBJECT_ID":"2020-088BB","DECAY_DATE":null,"PERIOD":"95.591","INCLINATION":"53.0541","ECCENTRICITY":"0.00015380","ARG_OF_PERICENTER":"87.2285","NORAD_CAT_ID":"47171","MEAN_MOTION_DOT":"0.00007120"},{"LAUNCH_DATE":"2020-11-25","EPHEMERIS_TYPE":"0","RA_OF_ASC_NODE":"57.3745","APOAPSIS":"548.014","MEAN_MOTION_DDOT":"0.0000000000000","GP_ID":"209860354","OBJECT_NAME":"STARLINK-1890","EPOCH":"2022-08-08T19:39:32.539104","ECCENTRICITY":"0.00013040","ARG_OF_PERICENTER":"91.0385","NORAD_CAT_ID":"47173","MEAN_MOTION_DOT":"-0.00004712","SEMIMAJOR_AXIS":"6925.246","OBJECT_TYPE":"PAYLOAD","MEAN_ANOMALY":"269.0753","CLASSIFICATION_TYPE":"U","OBJECT_ID":"2020-088BD","DECAY_DATE":null,"PERIOD":"95.590","INCLINATION":"53.0553","REV_AT_EPOCH":"9456","TIME_SYSTEM":"UTC","ELEMENT_SET_NO":"999","TLE_LINE1":"1 47173U 20088BD  22220.81912661 -.00004712  00000-0 -29735-3 0  9997","FILE":"3532305","BSTAR":"-0.00029735000000","REF_FRAME":"TEME","TLE_LINE2":"2 47173  53.0553  57.3745 0001304  91.0385 269.0753 15.06433603 94567","RCS_SIZE":"LARGE","CENTER_NAME":"EARTH","MEAN_ELEMENT_THEORY":"SGP4","SITE":"AFETR","MEAN_MOTION":"15.06433603","COUNTRY_CODE":"US","PERIAPSIS":"546.208"},{"PERIAPSIS":"546.197","COUNTRY_CODE":"US","SITE":"AFETR","MEAN_MOTION":"15.06401668","CENTER_NAME":"EARTH","MEAN_ELEMENT_THEORY":"SGP4","RCS_SIZE":"LARGE","TLE_LINE2":"2 47174  53.0541  57.3077 0001460  80.2941 279.8212 15.06401668 94851","ELEMENT_SET_NO":"999","TLE_LINE1":"1 47174U 20088BE  22220.83020162  .00003342  00000-0  24317-3 0  9993","FILE":"3532239","BSTAR":"0.00024317000000","REF_FRAME":"TEME","TIME_SYSTEM":"UTC","REV_AT_EPOCH":"9485","INCLINATION":"53.0541","OBJECT_ID":"2020-088BE","DECAY_DATE":null,"PERIOD":"95.592","OBJECT_TYPE":"PAYLOAD","MEAN_ANOMALY":"279.8212","CLASSIFICATION_TYPE":"U","SEMIMAJOR_AXIS":"6925.343","MEAN_MOTION_DOT":"0.00003342","ARG_OF_PERICENTER":"80.2941","NORAD_CAT_ID":"47174","ECCENTRICITY":"0.00014600","EPOCH":"2022-08-08T19:55:29.419968","GP_ID":"209838256","OBJECT_NAME":"STARLINK-1891","MEAN_MOTION_DDOT":"0.0000000000000","APOAPSIS":"548.220","RA_OF_ASC_NODE":"57.3077","LAUNCH_DATE":"2020-11-25","EPHEMERIS_TYPE":"0"}];
